SCD 1                   
1 22490U 93009B   26183.82514741  .00000469  00000+0  77249-4 0  9991
2 22490  24.9689 111.0184 0041646 303.6700  92.1772 14.46125028763381
TECHSAT 1B (GO-32)      
1 25397U 98043D   26183.86904904  .00000053  00000+0  42977-4 0  9990
2 25397  99.0074 177.0235 0001780 134.6871 225.4453 14.24431396453563
SCD 2                   
1 25504U 98060A   26183.78182816  .00000409  00000+0  63291-4 0  9997
2 25504  24.9965 335.9892 0016542 288.3013 203.0326 14.45531698462582
DLR-TUBSAT              
1 25757U 99029B   26184.06927691  .00000100  00000+0  36496-4 0  9998
2 25757  98.6702 180.0963 0013208 304.8457  55.1495 14.52430895435554
TERRA                   
1 25994U 99068A   26183.84729775  .00000473  00000+0  10519-3 0  9992
2 25994  97.9447 232.7721 0002762 147.9475 327.8787 14.61115956411893
MAROC-TUBSAT            
1 27004U 01056D   26183.77530163 -.00000035  00000+0  12887-4 0  9995
2 27004  99.8090   0.9291 0020612 102.6599 326.8055 13.70263068228326
AQUA                    
1 27424U 02022A   26184.36088480  .00000847  00000+0  17815-3 0  9996
2 27424  98.4286 153.9676 0000694  84.4551  81.4729 14.62182845285637
SHIYAN-1 (SY-1)         
1 28220U 04012A   26183.18725711  .00015404  00000+0  46818-3 0  9996
2 28220  97.8689 262.2336 0004345 335.4967  24.6068 15.34147176213393
AURA                    
1 28376U 04026A   26183.87134197  .00000817  00000+0  17500-3 0  9999
2 28376  98.3424 140.4551 0001182  86.4825 273.6510 14.61352717168504
IRS-P5 (CARTOSAT-1)     
1 28649U 05017A   26183.78149138  .00001527  00000+0  15937-3 0  9995
2 28649  97.5304 206.1386 0002090  61.9519 298.1911 14.91091659146149
SINAH 1                 
1 28893U 05043D   26183.84048269  .00000437  00000+0  92345-4 0  9993
2 28893  98.2881 318.2561 0013554 223.4457 136.5678 14.64168832102810
RESURS-DK 1             
1 29228U 06021A   26183.76762882  .00002578  00000+0  15058-3 0  9991
2 29228  69.9340 299.2211 0006699 284.6329  75.4094 15.13281648104931
ARIRANG-2 (KOMPSAT-2)   
1 29268U 06031A   26184.68967889  .00000271  00000+0  59292-4 0  9999
2 29268  97.8305   8.3374 0015235  26.4309  39.7669 14.64669925 63894
LAPAN-TUBSAT            
1 29709U 07001A   26184.61741495  .00000689  00000+0  85399-4 0  9993
2 29709  98.1340 184.2122 0013154 127.8827 232.3580 14.85966252 53596
HAIYANG-1B              
1 31113U 07010A   26183.87683455  .00000113  00000+0  58629-4 0  9991
2 31113  98.3503 165.1140 0014046 150.1147 210.0842 14.31030925  2884
COSMO-SKYMED 1          
1 31598U 07023A   26184.71017316  .00002312  00000+0  20523-3 0  9997
2 31598  97.8852  16.7056 0001244  83.5603 276.5760 14.97181568 32264
TERRASAR-X              
1 31698U 07026A   26182.61687754  .00000688  00000+0  35949-4 0  9990
2 31698  97.4453 190.1187 0001948  88.1804 271.9654 15.19153219 55415
WORLDVIEW-1 (WV-1)      
1 32060U 07041A   26183.91531901  .00005949  00000+0  24530-3 0  9995
2 32060  97.3898 303.4355 0000972 300.5540  59.5601 15.24440511 45276
YAOGAN-3                
1 32289U 07055A   26184.63861854  .00002573  00000+0  26690-3 0  9995
2 32289  97.8140 214.3538 0001802  81.6325 278.5098 14.90845748  8329
COSMO-SKYMED 2          
1 32376U 07059A   26184.63360661  .00000490  00000+0  68106-4 0  9991
2 32376  97.8889   7.9932 0001324  90.8084 269.3281 14.82159308  4445
RADARSAT-2              
1 32382U 07061A   26184.62090767  .00000141  00000+0  71491-4 0  9991
2 32382  98.5774 191.3185 0001299  83.0620 277.0710 14.29981490968305
CARTOSAT-2A             
1 32783U 08021A   26184.68672664  .00000901  00000+0  12785-3 0  9995
2 32783  97.7620 232.8318 0013198  61.0323 299.2210 14.79263618981246
HUANJING 1A (HJ-1A)     
1 33320U 08041A   26184.68587707  .00000663  00000+0  85460-4 0  9994
2 33320  97.6688 169.8869 0020673  84.1793 276.1778 14.84024010960854
HUANJING 1B (HJ-1B)     
1 33321U 08041B   26184.66249794  .00001264  00000+0  15865-3 0  9993
2 33321  97.6523 172.9861 0037496 127.6185 232.8443 14.83346910960852
GEOEYE 1                
1 33331U 08042A   26183.79596638  .00000569  00000+0  11602-3 0  9992
2 33331  98.1333 257.5367 0004872  25.4054 334.7387 14.64640940952434
THEOS                   
1 33396U 08049A   26184.59641880  .00000024  00000+0  30968-4 0  9992
2 33396  98.5561 241.3470 0001157  80.6883 279.4424 14.20135356920292
COSMO-SKYMED 3          
1 33412U 08054A   26184.67641476  .00003895  00000+0  26355-3 0  9990
2 33412  97.8264  43.5198 0014799 206.0636 153.9847 15.07057715959428
YAOGAN-4                
1 33446U 08061A   26183.75087277  .00001206  00000+0  15398-3 0  9995
2 33446  97.9307 117.1464 0014910  25.5664 334.6284 14.83231728947979
GOSAT (IBUKI)           
1 33492U 09002A   26183.82025479  .00000206  00000+0  44788-4 0  9991
2 33492  98.0906 294.7066 0001254  80.4689 279.6658 14.67538859933752
DEIMOS-1                
1 35681U 09041A   26184.66824508  .00000637  00000+0  10122-3 0  9991
2 35681  97.7421 341.1824 0002465 107.9717 252.1762 14.75254521909310
